ONEWEB-0311             
1 49097U 21075Y   25332.16866332 -.00000212  00000+0 -57837-3 0  9993
2 49097  87.9130  45.8257 0001547 111.6100 248.5196 13.17648932207151
ONEWEB-0312             
1 49098U 21075Z   25332.18386199  .00000038  00000+0  65049-4 0  9993
2 49098  87.9122  45.8495 0001402  99.6092 260.5198 13.17647709207137
ONEWEB-0313             
1 49099U 21075AA  25332.18880468 -.00000080  00000+0 -23907-3 0  9997
2 49099  87.9121  45.8571 0001627 100.9710 259.1605 13.17649370207126
ONEWEB-0314             
1 49100U 21075AB  25331.92736266  .00000023  00000+0  25236-4 0  9990
2 49100  87.9136  45.8590 0001383 100.0380 260.0907 13.17648660207069
ONEWEB-0315             
1 49101U 21075AC  25332.09576302  .00000207  00000+0  53920-3 0  9997
2 49101  87.8954  30.5894 0001604 111.4493 248.6806 13.12442815208792
ONEWEB-0316             
1 49102U 21075AD  25332.08614087  .00000092  00000+0  20158-3 0  9999
2 49102  87.9196  15.4102 0001767  99.2659 260.8673 13.18684816210700
ONEWEB-0317             
1 49103U 21075AE  25332.16550921  .00000382  00000+0  10257-2 0  9995
2 49103  87.8958  30.5928 0002210  80.5588 279.5791 13.12442874208826
ONEWEB-0318             
1 49104U 21075AF  25332.08283979  .00000019  00000+0  15630-4 0  9992
2 49104  87.9199  15.3982 0001605 103.7203 256.4107 13.18684152210668
ONEWEB-0319             
1 49105U 21075AG  25332.17035955  .00000082  00000+0  17867-3 0  9995
2 49105  87.9126  45.8466 0001428 111.9729 248.1554 13.17648267207139
ONEWEB-0323             
1 49106U 21075AH  25332.07954477  .00000479  00000+0  12953-2 0  9994
2 49106  87.8956  30.5964 0001191 114.7627 245.3626 13.12442993208176
ONEWEB-0329             
1 49107U 21075AJ  25332.17880720 -.00000023  00000+0 -93188-4 0  9993
2 49107  87.9121  45.8467 0001603 101.2477 258.8835 13.17647897207110
ONEWEB-0330             
1 49108U 21075AK  25332.17963874  .00000015  00000+0  43565-5 0  9990
2 49108  87.9126  45.8519 0001608  94.1661 265.9655 13.17647729207151
ONEWEB-0292             
1 49186U 21083A   25332.05682850 -.00011436  00000+0 -31430-1 0  9999
2 49186  87.8983   0.2392 0004241  94.3697 265.7917 13.13378227204525
ONEWEB-0303             
1 49187U 21083B   25332.07954380  .00000062  00000+0  12574-3 0  9993
2 49187  87.9198  15.4002 0001683 101.1858 258.9464 13.18684361203472
ONEWEB-0306             
1 49188U 21083C   25332.06964869  .00000087  00000+0  18684-3 0  9991
2 49188  87.9198  15.3871 0001971  92.1191 268.0166 13.18684916203517
ONEWEB-0307             
1 49189U 21083D   25332.12695973 -.00000063  00000+0 -20628-3 0  9993
2 49189  87.8975   0.2169 0001822  96.2447 263.8890 13.13469582204532
ONEWEB-0320             
1 49190U 21083E   25332.07707441  .00000050  00000+0  93188-4 0  9999
2 49190  87.9193  15.4151 0001768  96.3597 263.7737 13.18683226203471
