[{"OBJECT_NAME":"ONEWEB-0311","OBJECT_ID":"2021-075Y","EPOCH":"2025-11-28T04:02:52.510848","MEAN_MOTION":13.17648932,"ECCENTRICITY":0.0001547,"INCLINATION":87.913,"RA_OF_ASC_NODE":45.8257,"ARG_OF_PERICENTER":111.61,"MEAN_ANOMALY":248.5196,"EPHEMERIS_TYPE":0,"CLASSIFICATION_TYPE":"U","NORAD_CAT_ID":49097,"ELEMENT_SET_NO":999,"REV_AT_EPOCH":20715,"BSTAR":-0.00057837,"MEAN_MOTION_DOT":-2.12e-6,"MEAN_MOTION_DDOT":0},{"OBJECT_NAME":"ONEWEB-0312","OBJECT_ID":"2021-075Z","EPOCH":"2025-11-28T04:24:45.675936","MEAN_MOTION":13.17647709,"ECCENTRICITY":0.0001402,"INCLINATION":87.9122,"RA_OF_ASC_NODE":45.8495,"ARG_OF_PERICENTER":99.6092,"MEAN_ANOMALY":260.5198,"EPHEMERIS_TYPE":0,"CLASSIFICATION_TYPE":"U","NORAD_CAT_ID":49098,"ELEMENT_SET_NO":999,"REV_AT_EPOCH":20713,"BSTAR":6.5049e-5,"MEAN_MOTION_DOT":3.8e-7,"MEAN_MOTION_DDOT":0},{"OBJECT_NAME":"ONEWEB-0313","OBJECT_ID":"2021-075AA","EPOCH":"2025-11-28T04:31:52.724352","MEAN_MOTION":13.1764937,"ECCENTRICITY":0.0001627,"INCLINATION":87.9121,"RA_OF_ASC_NODE":45.8571,"ARG_OF_PERICENTER":100.971,"MEAN_ANOMALY":259.1605,"EPHEMERIS_TYPE":0,"CLASSIFICATION_TYPE":"U","NORAD_CAT_ID":49099,"ELEMENT_SET_NO":999,"REV_AT_EPOCH":20712,"BSTAR":-0.00023907,"MEAN_MOTION_DOT":-8.0e-7,"MEAN_MOTION_DDOT":0},{"OBJECT_NAME":"ONEWEB-0314","OBJECT_ID":"2021-075AB","EPOCH":"2025-11-27T22:15:24.133824","MEAN_MOTION":13.1764866,"ECCENTRICITY":0.0001383,"INCLINATION":87.9136,"RA_OF_ASC_NODE":45.859,"ARG_OF_PERICENTER":100.038,"MEAN_ANOMALY":260.0907,"EPHEMERIS_TYPE":0,"CLASSIFICATION_TYPE":"U","NORAD_CAT_ID":49100,"ELEMENT_SET_NO":999,"REV_AT_EPOCH":20706,"BSTAR":2.5236e-5,"MEAN_MOTION_DOT":2.3e-7,"MEAN_MOTION_DDOT":0},{"OBJECT_NAME":"ONEWEB-0315","OBJECT_ID":"2021-075AC","EPOCH":"2025-11-28T02:17:53.924928","MEAN_MOTION":13.12442815,"ECCENTRICITY":0.0001604,"INCLINATION":87.8954,"RA_OF_ASC_NODE":30.5894,"ARG_OF_PERICENTER":111.4493,"MEAN_ANOMALY":248.6806,"EPHEMERIS_TYPE":0,"CLASSIFICATION_TYPE":"U","NORAD_CAT_ID":49101,"ELEMENT_SET_NO":999,"REV_AT_EPOCH":20879,"BSTAR":0.0005392,"MEAN_MOTION_DOT":2.07e-6,"MEAN_MOTION_DDOT":0},{"OBJECT_NAME":"ONEWEB-0316","OBJECT_ID":"2021-075AD","EPOCH":"2025-11-28T02:04:02.571168","MEAN_MOTION":13.18684816,"ECCENTRICITY":0.0001767,"INCLINATION":87.9196,"RA_OF_ASC_NODE":15.4102,"ARG_OF_PERICENTER":99.2659,"MEAN_ANOMALY":260.8673,"EPHEMERIS_TYPE":0,"CLASSIFICATION_TYPE":"U","NORAD_CAT_ID":49102,"ELEMENT_SET_NO":999,"REV_AT_EPOCH":21070,"BSTAR":0.00020158,"MEAN_MOTION_DOT":9.2e-7,"MEAN_MOTION_DDOT":0},{"OBJECT_NAME":"ONEWEB-0317","OBJECT_ID":"2021-075AE","EPOCH":"2025-11-28T03:58:19.995744","MEAN_MOTION":13.12442874,"ECCENTRICITY":0.000221,"INCLINATION":87.8958,"RA_OF_ASC_NODE":30.5928,"ARG_OF_PERICENTER":80.5588,"MEAN_ANOMALY":279.5791,"EPHEMERIS_TYPE":0,"CLASSIFICATION_TYPE":"U","NORAD_CAT_ID":49103,"ELEMENT_SET_NO":999,"REV_AT_EPOCH":20882,"BSTAR":0.0010257,"MEAN_MOTION_DOT":3.82e-6,"MEAN_MOTION_DDOT":0},{"OBJECT_NAME":"ONEWEB-0318","OBJECT_ID":"2021-075AF","EPOCH":"2025-11-28T01:59:17.357856","MEAN_MOTION":13.18684152,"ECCENTRICITY":0.0001605,"INCLINATION":87.9199,"RA_OF_ASC_NODE":15.3982,"ARG_OF_PERICENTER":103.7203,"MEAN_ANOMALY":256.4107,"EPHEMERIS_TYPE":0,"CLASSIFICATION_TYPE":"U","NORAD_CAT_ID":49104,"ELEMENT_SET_NO":999,"REV_AT_EPOCH":21066,"BSTAR":1.563e-5,"MEAN_MOTION_DOT":1.9e-7,"MEAN_MOTION_DDOT":0},{"OBJECT_NAME":"ONEWEB-0319","OBJECT_ID":"2021-075AG","EPOCH":"2025-11-28T04:05:19.065120","MEAN_MOTION":13.17648267,"ECCENTRICITY":0.0001428,"INCLINATION":87.9126,"RA_OF_ASC_NODE":45.8466,"ARG_OF_PERICENTER":111.9729,"MEAN_ANOMALY":248.1554,"EPHEMERIS_TYPE":0,"CLASSIFICATION_TYPE":"U","NORAD_CAT_ID":49105,"ELEMENT_SET_NO":999,"REV_AT_EPOCH":20713,"BSTAR":0.00017867,"MEAN_MOTION_DOT":8.2e-7,"MEAN_MOTION_DDOT":0},{"OBJECT_NAME":"ONEWEB-0323","OBJECT_ID":"2021-075AH","EPOCH":"2025-11-28T01:54:32.668128","MEAN_MOTION":13.12442993,"ECCENTRICITY":0.0001191,"INCLINATION":87.8956,"RA_OF_ASC_NODE":30.5964,"ARG_OF_PERICENTER":114.7627,"MEAN_ANOMALY":245.3626,"EPHEMERIS_TYPE":0,"CLASSIFICATION_TYPE":"U","NORAD_CAT_ID":49106,"ELEMENT_SET_NO":999,"REV_AT_EPOCH":20817,"BSTAR":0.0012953,"MEAN_MOTION_DOT":4.79e-6,"MEAN_MOTION_DDOT":0},{"OBJECT_NAME":"ONEWEB-0329","OBJECT_ID":"2021-075AJ","EPOCH":"2025-11-28T04:17:28.942080","MEAN_MOTION":13.17647897,"ECCENTRICITY":0.0001603,"INCLINATION":87.9121,"RA_OF_ASC_NODE":45.8467,"ARG_OF_PERICENTER":101.2477,"MEAN_ANOMALY":258.8835,"EPHEMERIS_TYPE":0,"CLASSIFICATION_TYPE":"U","NORAD_CAT_ID":49107,"ELEMENT_SET_NO":999,"REV_AT_EPOCH":20711,"BSTAR":-9.3188e-5,"MEAN_MOTION_DOT":-2.3e-7,"MEAN_MOTION_DDOT":0},{"OBJECT_NAME":"ONEWEB-0330","OBJECT_ID":"2021-075AK","EPOCH":"2025-11-28T04:18:40.787136","MEAN_MOTION":13.17647729,"ECCENTRICITY":0.0001608,"INCLINATION":87.9126,"RA_OF_ASC_NODE":45.8519,"ARG_OF_PERICENTER":94.1661,"MEAN_ANOMALY":265.9655,"EPHEMERIS_TYPE":0,"CLASSIFICATION_TYPE":"U","NORAD_CAT_ID":49108,"ELEMENT_SET_NO":999,"REV_AT_EPOCH":20715,"BSTAR":4.3565e-6,"MEAN_MOTION_DOT":1.5e-7,"MEAN_MOTION_DDOT":0},{"OBJECT_NAME":"ONEWEB-0292","OBJECT_ID":"2021-083A","EPOCH":"2025-11-28T01:21:49.982400","MEAN_MOTION":13.13378227,"ECCENTRICITY":0.0004241,"INCLINATION":87.8983,"RA_OF_ASC_NODE":0.2392,"ARG_OF_PERICENTER":94.3697,"MEAN_ANOMALY":265.7917,"EPHEMERIS_TYPE":0,"CLASSIFICATION_TYPE":"U","NORAD_CAT_ID":49186,"ELEMENT_SET_NO":999,"REV_AT_EPOCH":20452,"BSTAR":-0.03143,"MEAN_MOTION_DOT":-0.00011436,"MEAN_MOTION_DDOT":0},{"OBJECT_NAME":"ONEWEB-0303","OBJECT_ID":"2021-083B","EPOCH":"2025-11-28T01:54:32.584320","MEAN_MOTION":13.18684361,"ECCENTRICITY":0.0001683,"INCLINATION":87.9198,"RA_OF_ASC_NODE":15.4002,"ARG_OF_PERICENTER":101.1858,"MEAN_ANOMALY":258.9464,"EPHEMERIS_TYPE":0,"CLASSIFICATION_TYPE":"U","NORAD_CAT_ID":49187,"ELEMENT_SET_NO":999,"REV_AT_EPOCH":20347,"BSTAR":0.00012574,"MEAN_MOTION_DOT":6.2e-7,"MEAN_MOTION_DDOT":0},{"OBJECT_NAME":"ONEWEB-0306","OBJECT_ID":"2021-083C","EPOCH":"2025-11-28T01:40:17.646816","MEAN_MOTION":13.18684916,"ECCENTRICITY":0.0001971,"INCLINATION":87.9198,"RA_OF_ASC_NODE":15.3871,"ARG_OF_PERICENTER":92.1191,"MEAN_ANOMALY":268.0166,"EPHEMERIS_TYPE":0,"CLASSIFICATION_TYPE":"U","NORAD_CAT_ID":49188,"ELEMENT_SET_NO":999,"REV_AT_EPOCH":20351,"BSTAR":0.00018684,"MEAN_MOTION_DOT":8.7e-7,"MEAN_MOTION_DDOT":0},{"OBJECT_NAME":"ONEWEB-0307","OBJECT_ID":"2021-083D","EPOCH":"2025-11-28T03:02:49.320672","MEAN_MOTION":13.13469582,"ECCENTRICITY":0.0001822,"INCLINATION":87.8975,"RA_OF_ASC_NODE":0.2169,"ARG_OF_PERICENTER":96.2447,"MEAN_ANOMALY":263.889,"EPHEMERIS_TYPE":0,"CLASSIFICATION_TYPE":"U","NORAD_CAT_ID":49189,"ELEMENT_SET_NO":999,"REV_AT_EPOCH":20453,"BSTAR":-0.00020628,"MEAN_MOTION_DOT":-6.3e-7,"MEAN_MOTION_DDOT":0},{"OBJECT_NAME":"ONEWEB-0320","OBJECT_ID":"2021-083E","EPOCH":"2025-11-28T01:50:59.229024","MEAN_MOTION":13.18683226,"ECCENTRICITY":0.0001768,"INCLINATION":87.9193,"RA_OF_ASC_NODE":15.4151,"ARG_OF_PERICENTER":96.3597,"MEAN_ANOMALY":263.7737,"EPHEMERIS_TYPE":0,"CLASSIFICATION_TYPE":"U","NORAD_CAT_ID":49190,"ELEMENT_SET_NO":999,"REV_AT_EPOCH":20347,"BSTAR":9.3188e-5,"MEAN_MOTION_DOT":5.0e-7,"MEAN_MOTION_DDOT":0}]
